[{"OBJECT_NAME":"STARLINK-3506","OBJECT_ID":"2022-016AP","EPOCH":"2026-03-09T21:52:42.896640","MEAN_MOTION":15.08845637,"ECCENTRICITY":0.00018898,"INCLINATION":53.2186,"RA_OF_ASC_NODE":308.1356,"ARG_OF_PERICENTER":77.7175,"MEAN_ANOMALY":282.4028,"EPHEMERIS_TYPE":0,"CLASSIFICATION_TYPE":"U","NORAD_CAT_ID":51751,"ELEMENT_SET_NO":999,"REV_AT_EPOCH":22373,"BSTAR":-0.00013442087,"MEAN_MOTION_DOT":-2.427e-5,"MEAN_MOTION_DDOT":0},{"OBJECT_NAME":"NOAA 17 DEB","OBJECT_ID":"2002-032BW","EPOCH":"2026-03-08T22:40:23.580768","MEAN_MOTION":15.05196658,"ECCENTRICITY":0.00149213,"INCLINATION":98.7181,"RA_OF_ASC_NODE":121.0481,"ARG_OF_PERICENTER":217.4424,"MEAN_ANOMALY":142.5761,"EPHEMERIS_TYPE":0,"CLASSIFICATION_TYPE":"U","NORAD_CAT_ID":48737,"ELEMENT_SET_NO":999,"REV_AT_EPOCH":26108,"BSTAR":0.0055556624,"MEAN_MOTION_DOT":0.00080221,"MEAN_MOTION_DDOT":0}]
